{
  "norad_id": 53085,
  "name": "STARLINK-4324",
  "history": [
    {
      "epoch": "2026-03-28T18:31:47.281728Z",
      "apogee_km": 550.5283153415876,
      "perigee_km": 548.5309305008668,
      "latitude_deg": 2.065109045969856e-05,
      "longitude_deg": 165.84496231722414,
      "height_km": 552.5586760754213,
      "semi_major_axis_km": 6927.666622921227,
      "eccentricity": 0.00014416,
      "inclination_deg": 97.6028,
      "raan_deg": 269.9797,
      "arg_perigee_deg": 88.0601,
      "mean_anomaly_deg": 272.0791,
      "mean_motion_rev_day": 15.05643979
    },
    {
      "epoch": "2026-03-29T02:30:17.222400Z",
      "apogee_km": 550.6069611587582,
      "perigee_km": 548.4455302261022,
      "latitude_deg": -4.6450996542630586e-05,
      "longitude_deg": 46.220297453735846,
      "height_km": 552.5896561190758,
      "semi_major_axis_km": 6927.66324569243,
      "eccentricity": 0.000156,
      "inclination_deg": 97.6027,
      "raan_deg": 270.3073,
      "arg_perigee_deg": 90.0387,
      "mean_anomaly_deg": 270.1018,
      "mean_motion_rev_day": 15.0564508
    },
    {
      "epoch": "2026-03-30T02:25:47.045280Z",
      "apogee_km": 550.7483022271153,
      "perigee_km": 548.2931403306939,
      "latitude_deg": 1.6987884371006387e-05,
      "longitude_deg": 47.34546478906889,
      "height_km": 552.3161650358898,
      "semi_major_axis_km": 6927.657721278904,
      "eccentricity": 0.0001772,
      "inclination_deg": 97.6028,
      "raan_deg": 271.2893,
      "arg_perigee_deg": 77.4435,
      "mean_anomaly_deg": 282.699,
      "mean_motion_rev_day": 15.05646881
    },
    {
      "epoch": "2026-03-30T05:37:10.899552Z",
      "apogee_km": 550.6348075417354,
      "perigee_km": 548.4021627319862,
      "latitude_deg": -3.2098524408115724e-05,
      "longitude_deg": -0.5039283236476512,
      "height_km": 552.5611234421066,
      "semi_major_axis_km": 6927.655485136861,
      "eccentricity": 0.00016114,
      "inclination_deg": 97.6027,
      "raan_deg": 271.4203,
      "arg_perigee_deg": 88.9759,
      "mean_anomaly_deg": 271.1652,
      "mean_motion_rev_day": 15.0564761
    },
    {
      "epoch": "2026-03-30T11:59:59.016768Z",
      "apogee_km": 550.6593819536474,
      "perigee_km": 548.3854470274355,
      "latitude_deg": 2.303645762948432e-05,
      "longitude_deg": -96.20434236198777,
      "height_km": 552.5934127978722,
      "semi_major_axis_km": 6927.659414490541,
      "eccentricity": 0.00016412,
      "inclination_deg": 97.6023,
      "raan_deg": 271.6824,
      "arg_perigee_deg": 90.4259,
      "mean_anomaly_deg": 269.7156,
      "mean_motion_rev_day": 15.05646329
    },
    {
      "epoch": "2026-03-30T18:22:46.664832Z",
      "apogee_km": 550.7467488864177,
      "perigee_km": 548.270669756992,
      "latitude_deg": -3.7335101217869726e-05,
      "longitude_deg": 168.0970190841016,
      "height_km": 552.5308064127229,
      "semi_major_axis_km": 6927.645709321705,
      "eccentricity": 0.00017871,
      "inclination_deg": 97.6023,
      "raan_deg": 271.9443,
      "arg_perigee_deg": 88.139,
      "mean_anomaly_deg": 272.0041,
      "mean_motion_rev_day": 15.05650797
    },
    {
      "epoch": "2026-03-31T11:55:28.831872Z",
      "apogee_km": 550.5005557249369,
      "perigee_km": 548.5619170456666,
      "latitude_deg": 2.5215554754699336e-05,
      "longitude_deg": -95.07873370258213,
      "height_km": 552.6543097625851,
      "semi_major_axis_km": 6927.6682363853015,
      "eccentricity": 0.00013992,
      "inclination_deg": 97.6022,
      "raan_deg": 272.6648,
      "arg_perigee_deg": 93.5549,
      "mean_anomaly_deg": 266.5838,
      "mean_motion_rev_day": 15.05643453
    },
    {
      "epoch": "2026-04-01T18:13:47.179776Z",
      "apogee_km": 550.6200520698176,
      "perigee_km": 548.4516904611119,
      "latitude_deg": -3.167531198937117e-06,
      "longitude_deg": 170.34433601327257,
      "height_km": 552.5921731192739,
      "semi_major_axis_km": 6927.672871265465,
      "eccentricity": 0.0001565,
      "inclination_deg": 97.6027,
      "raan_deg": 273.9089,
      "arg_perigee_deg": 89.664,
      "mean_anomaly_deg": 270.4766,
      "mean_motion_rev_day": 15.05641942
    },
    {
      "epoch": "2026-04-02T18:09:16.900704Z",
      "apogee_km": 550.5378509131915,
      "perigee_km": 548.5315971819073,
      "latitude_deg": 4.435201420631462e-05,
      "longitude_deg": 171.47093167696372,
      "height_km": 552.6288571487169,
      "semi_major_axis_km": 6927.671724047549,
      "eccentricity": 0.0001448,
      "inclination_deg": 97.6033,
      "raan_deg": 274.8919,
      "arg_perigee_deg": 91.7875,
      "mean_anomaly_deg": 268.3518,
      "mean_motion_rev_day": 15.05642316
    },
    {
      "epoch": "2026-04-02T22:56:22.802208Z",
      "apogee_km": 550.6370943049915,
      "perigee_km": 548.4277219773476,
      "latitude_deg": -3.38131620778625e-05,
      "longitude_deg": 99.69674074907135,
      "height_km": 552.6316460856788,
      "semi_major_axis_km": 6927.66940814117,
      "eccentricity": 0.00015946,
      "inclination_deg": 97.6026,
      "raan_deg": 275.0888,
      "arg_perigee_deg": 91.8991,
      "mean_anomaly_deg": 268.2418,
      "mean_motion_rev_day": 15.05643071
    },
    {
      "epoch": "2026-04-03T18:04:47.634240Z",
      "apogee_km": 550.6230395579851,
      "perigee_km": 548.4823834371327,
      "latitude_deg": -7.343267771862997e-05,
      "longitude_deg": 172.5929178217967,
      "height_km": 552.6080368591143,
      "semi_major_axis_km": 6927.689711497558,
      "eccentricity": 0.0001545,
      "inclination_deg": 97.6025,
      "raan_deg": 275.8745,
      "arg_perigee_deg": 89.6051,
      "mean_anomaly_deg": 270.5352,
      "mean_motion_rev_day": 15.05636452
    },
    {
      "epoch": "2026-04-04T11:37:29.525664Z",
      "apogee_km": 550.5899088262986,
      "perigee_km": 548.4776620038247,
      "latitude_deg": -3.419815467075076e-05,
      "longitude_deg": -90.58148177288923,
      "height_km": 552.5721353554046,
      "semi_major_axis_km": 6927.670785415061,
      "eccentricity": 0.00015245,
      "inclination_deg": 97.6027,
      "raan_deg": 276.5952,
      "arg_perigee_deg": 88.6772,
      "mean_anomaly_deg": 271.4629,
      "mean_motion_rev_day": 15.05642622
    },
    {
      "epoch": "2026-04-05T11:32:59.309664Z",
      "apogee_km": 550.4981602125763,
      "perigee_km": 548.5397118794563,
      "latitude_deg": -1.0830842364519663e-05,
      "longitude_deg": -89.4556485988259,
      "height_km": 552.5012862178588,
      "semi_major_axis_km": 6927.655936046016,
      "eccentricity": 0.00014135,
      "inclination_deg": 97.6025,
      "raan_deg": 277.5777,
      "arg_perigee_deg": 85.2803,
      "mean_anomaly_deg": 274.8585,
      "mean_motion_rev_day": 15.05647463
    },
    {
      "epoch": "2026-04-06T01:54:17.189568Z",
      "apogee_km": 550.4976343943226,
      "perigee_km": 548.5407100787879,
      "latitude_deg": -2.3985013657821955e-05,
      "longitude_deg": 55.220014889656845,
      "height_km": 552.5228717954805,
      "semi_major_axis_km": 6927.656172236555,
      "eccentricity": 0.00014124,
      "inclination_deg": 97.6026,
      "raan_deg": 278.1674,
      "arg_perigee_deg": 86.5299,
      "mean_anomaly_deg": 273.6089,
      "mean_motion_rev_day": 15.05647386
    },
    {
      "epoch": "2026-04-07T11:23:59.805600Z",
      "apogee_km": 550.5320589930725,
      "perigee_km": 548.5307941380061,
      "latitude_deg": 1.2235820252295775e-05,
      "longitude_deg": -87.20755819371337,
      "height_km": 552.5317217769162,
      "semi_major_axis_km": 6927.668426565539,
      "eccentricity": 0.00014444,
      "inclination_deg": 97.6026,
      "raan_deg": 279.543,
      "arg_perigee_deg": 86.4153,
      "mean_anomaly_deg": 273.7239,
      "mean_motion_rev_day": 15.05643391
    },
    {
      "epoch": "2026-04-08T11:19:29.741664Z",
      "apogee_km": 550.3339850796074,
      "perigee_km": 548.715960349261,
      "latitude_deg": -3.708777784454865e-05,
      "longitude_deg": -86.08165234897942,
      "height_km": 552.4451599030359,
      "semi_major_axis_km": 6927.661972714434,
      "eccentricity": 0.00011678,
      "inclination_deg": 97.6034,
      "raan_deg": 280.5262,
      "arg_perigee_deg": 79.8099,
      "mean_anomaly_deg": 280.3259,
      "mean_motion_rev_day": 15.05645495
    },
    {
      "epoch": "2026-04-09T11:14:59.796960Z",
      "apogee_km": 550.4239645953621,
      "perigee_km": 548.6310850163418,
      "latitude_deg": -3.4495187193482714e-05,
      "longitude_deg": -84.95805155471832,
      "height_km": 552.509024893783,
      "semi_major_axis_km": 6927.664524805851,
      "eccentricity": 0.0001294,
      "inclination_deg": 97.6028,
      "raan_deg": 281.5076,
      "arg_perigee_deg": 84.7765,
      "mean_anomaly_deg": 275.3609,
      "mean_motion_rev_day": 15.05644663
    },
    {
      "epoch": "2026-04-10T00:00:35.769600Z",
      "apogee_km": 550.4077017593718,
      "perigee_km": 548.6260477358637,
      "latitude_deg": -8.160428774709766e-05,
      "longitude_deg": 83.6419328857974,
      "height_km": 552.5307590050701,
      "semi_major_axis_km": 6927.653874747617,
      "eccentricity": 0.00012859,
      "inclination_deg": 97.603,
      "raan_deg": 282.0315,
      "arg_perigee_deg": 86.8308,
      "mean_anomaly_deg": 273.3065,
      "mean_motion_rev_day": 15.05648135
    },
    {
      "epoch": "2026-04-11T11:05:59.133408Z",
      "apogee_km": 550.3393096679911,
      "perigee_km": 548.6475823130795,
      "latitude_deg": -4.277182093103508e-05,
      "longitude_deg": -82.70601240953322,
      "height_km": 552.5131570569416,
      "semi_major_axis_km": 6927.630445990535,
      "eccentricity": 0.0001221,
      "inclination_deg": 97.6022,
      "raan_deg": 283.472,
      "arg_perigee_deg": 87.0482,
      "mean_anomaly_deg": 273.0884,
      "mean_motion_rev_day": 15.05655773
    }
  ]
}